start=new Date('2022-11-11T00:00:00.000Z').valueOf();
sats=[{"EPHEMERIS_TYPE":"0","TLE_LINE1":"1 53968U 22125E   22314.91667824 -.01213486  00000-0 -56700-1 0  9994","NORAD_CAT_ID":"53968","SEMIMAJOR_AXIS":"6877.140","INCLINATION":"53.2169","CENTER_NAME":"EARTH","TLE_LINE2":"2 53968  53.2169 277.6048 0001608  49.1829 191.3273 15.22267615  1308","REF_FRAME":"TEME","PERIOD":"94.596","EPOCH":"2022-11-10T22:00:00.999936","MEAN_ELEMENT_THEORY":"SGP4","MEAN_ANOMALY":"191.3273","RA_OF_ASC_NODE":"277.6048","DECAY_DATE":null,"ELEMENT_SET_NO":"999","TIME_SYSTEM":"UTC","PERIAPSIS":"497.899","MEAN_MOTION":"15.22267615","ARG_OF_PERICENTER":"49.1829","COUNTRY_CODE":"US","ECCENTRICITY":"0.00016080","APOAPSIS":"500.110","FILE":"3650843","OBJECT_TYPE":"PAYLOAD","BSTAR":"-0.05670000000000","CLASSIFICATION_TYPE":"U","REV_AT_EPOCH":"130","GP_ID":"217372525","OBJECT_ID":"2022-125E","MEAN_MOTION_DDOT":"0.0000000000000","MEAN_MOTION_DOT":"-0.01213486","OBJECT_NAME":"STARLINK-4629","LAUNCH_DATE":"2022-10-05","RCS_SIZE":"LARGE","SITE":"AFWTR"},{"CLASSIFICATION_TYPE":"U","REV_AT_EPOCH":"130","FILE":"3650843","OBJECT_TYPE":"PAYLOAD","BSTAR":"-0.05895300000000","RCS_SIZE":"LARGE","SITE":"AFWTR","GP_ID":"217373279","MEAN_MOTION_DDOT":"0.0000000000000","OBJECT_ID":"2022-125F","MEAN_MOTION_DOT":"-0.01237055","OBJECT_NAME":"STARLINK-4468","LAUNCH_DATE":"2022-10-05","MEAN_MOTION":"15.21658684","ECCENTRICITY":"0.00017020","APOAPSIS":"502.010","ARG_OF_PERICENTER":"44.9224","COUNTRY_CODE":"US","RA_OF_ASC_NODE":"277.6613","ELEMENT_SET_NO":"999","TIME_SYSTEM":"UTC","PERIAPSIS":"499.668","DECAY_DATE":null,"TLE_LINE2":"2 53969  53.2171 277.6613 0001702  44.9224 167.0297 15.21658684  1302","EPHEMERIS_TYPE":"0","TLE_LINE1":"1 53969U 22125F   22314.91667824 -.01237055  00000-0 -58953-1 0  9995","NORAD_CAT_ID":"53969","CENTER_NAME":"EARTH","SEMIMAJOR_AXIS":"6878.974","INCLINATION":"53.2171","MEAN_ANOMALY":"167.0297","PERIOD":"94.634","EPOCH":"2022-11-10T22:00:00.999936","REF_FRAME":"TEME","MEAN_ELEMENT_THEORY":"SGP4"},{"PERIOD":"93.129","EPOCH":"2022-11-10T22:00:00.999936","MEAN_ELEMENT_THEORY":"SGP4","REF_FRAME":"TEME","MEAN_ANOMALY":"102.8774","EPHEMERIS_TYPE":"0","SEMIMAJOR_AXIS":"6805.883","INCLINATION":"53.2173","CENTER_NAME":"EARTH","NORAD_CAT_ID":"53970","TLE_LINE1":"1 53970U 22125G   22314.91667824 -.01170686  00000-0 -25669-1 0  9991","TLE_LINE2":"2 53970  53.2173 274.8472 0001336  74.8118 102.8774 15.46236880  1309","DECAY_DATE":null,"TIME_SYSTEM":"UTC","ELEMENT_SET_NO":"999","PERIAPSIS":"426.839","RA_OF_ASC_NODE":"274.8472","COUNTRY_CODE":"US","ARG_OF_PERICENTER":"74.8118","APOAPSIS":"428.657","ECCENTRICITY":"0.00013360","MEAN_MOTION":"15.46236880","OBJECT_ID":"2022-125G","GP_ID":"217372690","MEAN_MOTION_DDOT":"0.0000000000000","MEAN_MOTION_DOT":"-0.01170686","LAUNCH_DATE":"2022-10-05","OBJECT_NAME":"STARLINK-4567","RCS_SIZE":"LARGE","SITE":"AFWTR","FILE":"3650843","BSTAR":"-0.02566900000000","OBJECT_TYPE":"PAYLOAD","REV_AT_EPOCH":"130","CLASSIFICATION_TYPE":"U"},{"NORAD_CAT_ID":"53971","TLE_LINE1":"1 53971U 22125H   22314.91667824 -.01223689  00000-0 -57735-1 0  9993","CENTER_NAME":"EARTH","SEMIMAJOR_AXIS":"6878.057","INCLINATION":"53.2172","EPHEMERIS_TYPE":"0","TLE_LINE2":"2 53971  53.2172 277.6330 0001879  42.4730 183.8129 15.21963051  1309","PERIOD":"94.615","MEAN_ELEMENT_THEORY":"SGP4","REF_FRAME":"TEME","EPOCH":"2022-11-10T22:00:00.999936","MEAN_ANOMALY":"183.8129","RA_OF_ASC_NODE":"277.6330","DECAY_DATE":null,"PERIAPSIS":"498.630","ELEMENT_SET_NO":"999","TIME_SYSTEM":"UTC","MEAN_MOTION":"15.21963051","ARG_OF_PERICENTER":"42.4730","COUNTRY_CODE":"US","ECCENTRICITY":"0.00018790","APOAPSIS":"501.214","OBJECT_TYPE":"PAYLOAD","BSTAR":"-0.05773500000000","FILE":"3650843","CLASSIFICATION_TYPE":"U","REV_AT_EPOCH":"130","OBJECT_NAME":"STARLINK-4639","LAUNCH_DATE":"2022-10-05","MEAN_MOTION_DOT":"-0.01223689","GP_ID":"217373697","MEAN_MOTION_DDOT":"0.0000000000000","OBJECT_ID":"2022-125H","SITE":"AFWTR","RCS_SIZE":"LARGE"},{"ARG_OF_PERICENTER":"76.6712","COUNTRY_CODE":"US","ECCENTRICITY":"0.00013740","APOAPSIS":"423.076","MEAN_MOTION":"15.48149562","OBJECT_NAME":"STARLINK-5157","LAUNCH_DATE":"2022-10-05","GP_ID":"217372942","MEAN_MOTION_DDOT":"0.0000000000000","OBJECT_ID":"2022-125J","MEAN_MOTION_DOT":"-0.01169967","SITE":"AFWTR","RCS_SIZE":"LARGE","OBJECT_TYPE":"PAYLOAD","BSTAR":"-0.02399400000000","FILE":"3650843","CLASSIFICATION_TYPE":"U","REV_AT_EPOCH":"130","REF_FRAME":"TEME","PERIOD":"93.014","EPOCH":"2022-11-10T22:00:00.999936","MEAN_ELEMENT_THEORY":"SGP4","MEAN_ANOMALY":"112.8623","TLE_LINE1":"1 53972U 22125J   22314.91667824 -.01169967  00000-0 -23994-1 0  9992","NORAD_CAT_ID":"53972","SEMIMAJOR_AXIS":"6800.276","INCLINATION":"53.2173","CENTER_NAME":"EARTH","EPHEMERIS_TYPE":"0","TLE_LINE2":"2 53972  53.2173 274.8235 0001374  76.6712 112.8623 15.48149562  1306","DECAY_DATE":null,"PERIAPSIS":"421.207","ELEMENT_SET_NO":"999","TIME_SYSTEM":"UTC","RA_OF_ASC_NODE":"274.8235"},{"APOAPSIS":"499.124","ECCENTRICITY":"0.00015740","COUNTRY_CODE":"US","ARG_OF_PERICENTER":"52.0256","MEAN_MOTION":"15.22587426","SITE":"AFWTR","RCS_SIZE":"LARGE","LAUNCH_DATE":"2022-10-05","OBJECT_NAME":"STARLINK-5156","MEAN_MOTION_DOT":"-0.01229309","GP_ID":"217373541","MEAN_MOTION_DDOT":"0.0000000000000","OBJECT_ID":"2022-125K","REV_AT_EPOCH":"130","CLASSIFICATION_TYPE":"U","BSTAR":"-0.05696100000000","OBJECT_TYPE":"PAYLOAD","FILE":"3650843","MEAN_ANOMALY":"202.6392","PERIOD":"94.576","REF_FRAME":"TEME","MEAN_ELEMENT_THEORY":"SGP4","EPOCH":"2022-11-10T22:00:00.999936","TLE_LINE2":"2 53973  53.2171 277.5766 0001574  52.0256 202.6392 15.22587426  1305","INCLINATION":"53.2171","SEMIMAJOR_AXIS":"6876.176","CENTER_NAME":"EARTH","NORAD_CAT_ID":"53973","TLE_LINE1":"1 53973U 22125K   22314.91667824 -.01229309  00000-0 -56961-1 0  9990","EPHEMERIS_TYPE":"0","PERIAPSIS":"496.959","TIME_SYSTEM":"UTC","ELEMENT_SET_NO":"999","DECAY_DATE":null,"RA_OF_ASC_NODE":"277.5766"},{"EPHEMERIS_TYPE":"0","SEMIMAJOR_AXIS":"6728.052","CENTER_NAME":"EARTH","INCLINATION":"53.2158","NORAD_CAT_ID":"53974","TLE_LINE1":"1 53974U 22125L   22314.91667824  .00064116  00000-0  45883-3 0  9994","TLE_LINE2":"2 53974  53.2158 273.3815 0001806  34.9739 157.5047 15.73144865  1300","REF_FRAME":"TEME","PERIOD":"91.536","EPOCH":"2022-11-10T22:00:00.999936","MEAN_ELEMENT_THEORY":"SGP4","MEAN_ANOMALY":"157.5047","RA_OF_ASC_NODE":"273.3815","DECAY_DATE":null,"TIME_SYSTEM":"UTC","ELEMENT_SET_NO":"999","PERIAPSIS":"348.702","MEAN_MOTION":"15.73144865","COUNTRY_CODE":"US","ARG_OF_PERICENTER":"34.9739","APOAPSIS":"351.132","ECCENTRICITY":"0.00018060","FILE":"3650843","BSTAR":"0.00045883000000","OBJECT_TYPE":"PAYLOAD","REV_AT_EPOCH":"130","CLASSIFICATION_TYPE":"U","MEAN_MOTION_DOT":"0.00064116","GP_ID":"217373108","MEAN_MOTION_DDOT":"0.0000000000000","OBJECT_ID":"2022-125L","LAUNCH_DATE":"2022-10-05","OBJECT_NAME":"STARLINK-5159","RCS_SIZE":"MEDIUM","SITE":"AFWTR"},{"FILE":"3650843","BSTAR":"-0.02482800000000","OBJECT_TYPE":"PAYLOAD","REV_AT_EPOCH":"130","CLASSIFICATION_TYPE":"U","MEAN_MOTION_DDOT":"0.0000000000000","GP_ID":"217373436","OBJECT_ID":"2022-125M","MEAN_MOTION_DOT":"-0.01170794","LAUNCH_DATE":"2022-10-05","OBJECT_NAME":"STARLINK-5137","RCS_SIZE":"LARGE","SITE":"AFWTR","MEAN_MOTION":"15.47193625","COUNTRY_CODE":"US","ARG_OF_PERICENTER":"42.2971","APOAPSIS":"426.140","ECCENTRICITY":"0.00017610","RA_OF_ASC_NODE":"274.8338","DECAY_DATE":null,"TIME_SYSTEM":"UTC","ELEMENT_SET_NO":"999","PERIAPSIS":"423.744","EPHEMERIS_TYPE":"0","INCLINATION":"53.2171","SEMIMAJOR_AXIS":"6803.077","CENTER_NAME":"EARTH","TLE_LINE1":"1 53975U 22125M   22314.91667824 -.01170794  00000-0 -24828-1 0  9992","NORAD_CAT_ID":"53975","TLE_LINE2":"2 53975  53.2171 274.8338 0001761  42.2971 141.9783 15.47193625  1305","REF_FRAME":"TEME","PERIOD":"93.072","MEAN_ELEMENT_THEORY":"SGP4","EPOCH":"2022-11-10T22:00:00.999936","MEAN_ANOMALY":"141.9783"},{"RA_OF_ASC_NODE":"273.6421","ELEMENT_SET_NO":"999","TIME_SYSTEM":"UTC","PERIAPSIS":"348.611","DECAY_DATE":null,"TLE_LINE2":"2 53976  53.2188 273.6421 0001781  32.1462  32.8798 15.73182954  1305","EPHEMERIS_TYPE":"0","TLE_LINE1":"1 53976U 22125N   22314.91667824  .00041075  00000-0  29586-3 0  9997","NORAD_CAT_ID":"53976","SEMIMAJOR_AXIS":"6727.944","CENTER_NAME":"EARTH","INCLINATION":"53.2188","MEAN_ANOMALY":"32.8798","MEAN_ELEMENT_THEORY":"SGP4","PERIOD":"91.534","REF_FRAME":"TEME","EPOCH":"2022-11-10T22:00:00.999936","CLASSIFICATION_TYPE":"U","REV_AT_EPOCH":"130","FILE":"3650843","OBJECT_TYPE":"PAYLOAD","BSTAR":"0.00029586000000","RCS_SIZE":"LARGE","SITE":"AFWTR","GP_ID":"217372526","MEAN_MOTION_DOT":"0.00041075","MEAN_MOTION_DDOT":"0.0000000000000","OBJECT_ID":"2022-125N","OBJECT_NAME":"STARLINK-5134","LAUNCH_DATE":"2022-10-05","MEAN_MOTION":"15.73182954","ECCENTRICITY":"0.00017810","APOAPSIS":"351.007","ARG_OF_PERICENTER":"32.1462","COUNTRY_CODE":"US"},{"CLASSIFICATION_TYPE":"U","REV_AT_EPOCH":"130","OBJECT_TYPE":"PAYLOAD","BSTAR":"-0.01683800000000","FILE":"3650843","SITE":"AFWTR","RCS_SIZE":"LARGE","OBJECT_NAME":"STARLINK-5094","LAUNCH_DATE":"2022-10-05","GP_ID":"217373280","MEAN_MOTION_DOT":"-0.00833414","MEAN_MOTION_DDOT":"0.0000000000000","OBJECT_ID":"2022-125P","MEAN_MOTION":"15.48536219","ECCENTRICITY":"0.00015140","APOAPSIS":"422.039","ARG_OF_PERICENTER":"53.0424","COUNTRY_CODE":"US","RA_OF_ASC_NODE":"274.8149","PERIAPSIS":"419.980","ELEMENT_SET_NO":"999","TIME_SYSTEM":"UTC","DECAY_DATE":null,"TLE_LINE2":"2 53977  53.2172 274.8149 0001514  53.0424 140.7300 15.48536219  1300","NORAD_CAT_ID":"53977","TLE_LINE1":"1 53977U 22125P   22314.91667824 -.00833414  00000-0 -16838-1 0  9990","CENTER_NAME":"EARTH","SEMIMAJOR_AXIS":"6799.144","INCLINATION":"53.2172","EPHEMERIS_TYPE":"0","MEAN_ANOMALY":"140.7300","EPOCH":"2022-11-10T22:00:00.999936","PERIOD":"92.991","REF_FRAME":"TEME","MEAN_ELEMENT_THEORY":"SGP4"}];
